{"type":"FeatureCollection","name":"USGS ShakeMap MMI contours \u2014 Gorkha / Nepal earthquake 2015 (us20002926)","source":"https://earthquake.usgs.gov/earthquakes/eventpage/us20002926/shakemap","features":[{"type":"Feature","properties":{"value":5.0,"units":"mmi","color":"#7cff90","weight":2},"geometry":{"type":"MultiLineString","coordinates":[[[85.125657,25.576285],[85.05911,25.579395],[84.992563,25.627132],[84.857835,25.746312],[84.759648,25.864688],[84.676464,25.929557],[84.476822,26.020292],[84.17736,26.124302],[83.874156,26.278532],[83.694892,26.393169],[83.618013,26.461482],[83.455066,26.661065],[83.245699,26.78798],[82.996147,27.021289],[82.82926,27.226548],[82.725703,27.459395],[82.707138,27.625713],[82.729168,27.675609],[82.796505,27.718316],[82.886798,27.742136],[82.97951,27.791075],[83.008459,27.841928],[82.99897,27.891823],[83.012784,28.041942],[83.145878,28.382688],[83.163822,28.473939],[83.241015,28.606994],[83.277137,28.723417],[83.350888,28.873104],[83.4023,29.039422],[83.408546,29.155846],[83.39922,29.205741],[83.410238,29.255637],[83.461977,29.332349],[83.49154,29.405324],[83.456708,29.521747],[83.427963,29.571642],[83.418281,29.63817],[83.45532,29.671434],[83.495251,29.684275],[83.511888,29.669963],[83.528524,29.683857],[83.545161,29.669963],[83.574926,29.671434],[83.539411,29.837752],[83.561798,29.892697],[83.728166,29.889585],[83.778076,29.915576],[83.86126,29.908886],[83.894534,29.930037],[83.921688,29.90428],[83.925734,29.871016],[83.944444,29.848035],[84.014908,29.854384],[84.015816,29.887648],[83.977718,29.898747],[83.943429,29.937543],[83.894534,29.94505],[83.872579,29.987439],[83.911171,30.039034],[84.008154,30.070598],[84.094176,30.054632],[84.144086,30.020358],[84.193996,30.020713],[84.243907,30.053995],[84.27718,30.115987],[84.310454,30.12887],[84.360364,30.062351],[84.393638,30.053506],[84.493459,30.155717],[84.576643,30.167186],[84.64319,30.119298],[84.659827,30.126599],[84.676464,30.114153],[84.6931,30.134183],[84.709737,30.103723],[84.759648,30.163875],[84.776284,30.158961],[84.821836,30.120494],[84.859468,30.052423],[84.876105,30.1077],[84.892742,30.119536],[84.926016,30.068393],[84.942652,30.068964],[84.975926,30.100458],[85.10902,30.087516],[85.142294,30.07342],[85.192204,30.091452],[85.275388,30.055804],[85.391846,30.089591],[85.398969,30.053967],[85.425119,30.042666],[85.433015,30.053967],[85.413326,30.070598],[85.441756,30.090858],[85.487158,30.070598],[85.458393,30.0649],[85.444867,30.020703],[85.425119,30.027091],[85.399977,30.004071],[85.416613,29.920912],[85.425119,29.903667],[85.541577,29.870577],[85.57534,29.90428],[85.578013,29.937543],[85.541204,30.053967],[85.574851,30.07492],[85.608124,30.07356],[85.674671,30.020846],[85.696172,29.970807],[85.757855,29.904653],[85.857676,29.821769],[85.874313,29.821769],[85.895468,29.754593],[85.87728,29.737961],[85.87984,29.688065],[85.903653,29.63817],[85.967663,29.604906],[85.974134,29.587914],[86.073955,29.577965],[86.107228,29.587435],[86.140502,29.567906],[86.223686,29.624918],[86.240323,29.614999],[86.264993,29.538379],[86.290233,29.52971],[86.319505,29.488483],[86.335605,29.455219],[86.32942,29.438587],[86.379124,29.421955],[86.388642,29.338796],[86.489875,29.25172],[86.72279,29.183983],[86.872521,29.111884],[86.915528,29.072686],[86.972342,29.064149],[87.022252,29.037696],[87.155346,29.014328],[87.305078,28.899286],[87.371625,28.93687],[87.426431,28.939631],[87.469377,28.873104],[87.486726,28.773312],[87.471993,28.723417],[87.504719,28.675373],[87.52159,28.606994],[87.567247,28.557098],[87.54658,28.507203],[87.544633,28.457307],[87.560307,28.440675],[87.55299,28.390779],[87.582701,28.357516],[87.599887,28.30762],[87.612288,28.207829],[87.601113,28.141301],[87.629304,28.074774],[87.611592,28.008246],[87.616814,27.941719],[87.603677,27.925087],[87.617724,27.858559],[87.611036,27.758768],[87.369787,27.293076],[87.321714,27.175564],[87.226024,27.010334],[87.190878,26.910543],[87.210758,26.860647],[87.255167,26.820435],[87.412422,26.744224],[87.471842,26.694328],[87.474872,26.644433],[87.459674,26.611169],[87.332336,26.394955],[87.198429,26.2619],[86.972342,26.093881],[86.822611,26.007775],[86.672879,25.941657],[86.423327,25.849426],[86.207049,25.800417],[86.057318,25.779151],[85.508303,25.740405],[85.458393,25.725282],[85.31956,25.646521],[85.258751,25.63513],[85.125657,25.576285]],[[86.756063,29.388607],[86.72279,29.373539],[86.589695,29.382548],[86.489875,29.413112],[86.400536,29.421955],[86.423327,29.431338],[86.439964,29.463359],[86.489875,29.46667],[86.506511,29.506636],[86.556422,29.510358],[86.689516,29.468721],[86.72279,29.445757],[86.756063,29.388607]],[[87.737634,28.472458],[87.720998,28.472176],[87.701987,28.507203],[87.737634,28.574837],[87.756335,28.557098],[87.76997,28.507203],[87.737634,28.472458]]]}},{"type":"Feature","properties":{"value":5.5,"units":"mmi","color":"#bbff4a","weight":4},"geometry":{"type":"MultiLineString","coordinates":[[[86.007407,26.111442],[85.707945,26.101534],[85.208841,26.146564],[85.075747,26.178019],[84.743011,26.304794],[84.327091,26.433884],[83.994355,26.60457],[83.794713,26.725221],[83.644982,26.863065],[83.558771,26.97707],[83.543723,27.026966],[83.547725,27.093493],[83.522381,27.143389],[83.478614,27.178507],[83.39543,27.188868],[83.310343,27.24318],[83.226386,27.32634],[83.162515,27.423904],[83.102992,27.542554],[83.084414,27.675609],[83.105019,27.708873],[83.145878,27.734999],[83.312246,27.741061],[83.349114,27.7754],[83.361553,27.808664],[83.359589,27.875191],[83.322536,27.941719],[83.335923,28.024878],[83.401191,28.141301],[83.447634,28.30762],[83.703286,28.906367],[83.68662,28.939631],[83.684177,29.006159],[83.661619,29.027311],[83.658171,29.056054],[83.674605,29.089318],[83.701283,29.10595],[83.719237,29.155846],[83.708068,29.172477],[83.759115,29.222373],[83.728166,29.248578],[83.728166,29.262695],[83.749663,29.272269],[83.728166,29.281842],[83.723959,29.322164],[83.794713,29.350387],[83.824932,29.322164],[83.827987,29.291231],[83.849666,29.305532],[83.902268,29.405324],[83.930366,29.604906],[83.973435,29.688065],[84.027628,29.727825],[84.060902,29.74247],[84.210633,29.755758],[84.310454,29.786777],[84.357479,29.82112],[84.410275,29.832391],[84.493459,29.798961],[84.576643,29.709911],[84.659827,29.716302],[84.726374,29.733179],[84.732465,29.804489],[84.759648,29.820523],[84.809558,29.814446],[84.833923,29.787857],[84.822028,29.771225],[84.859468,29.728301],[85.025836,29.673299],[85.158931,29.662962],[85.208841,29.670031],[85.266096,29.704697],[85.233588,29.721329],[85.228722,29.771225],[85.242115,29.793252],[85.275388,29.782795],[85.292025,29.742819],[85.341935,29.733242],[85.358572,29.710512],[85.375209,29.713587],[85.425119,29.684995],[85.586037,29.671434],[85.641398,29.627949],[85.712386,29.604906],[85.811953,29.538379],[85.907587,29.420398],[85.924223,29.427831],[85.94086,29.414871],[85.943954,29.388692],[85.981701,29.355428],[85.978888,29.2889],[85.939216,29.255637],[85.964034,29.239005],[85.963611,29.205741],[85.984038,29.172477],[86.024044,29.138426],[86.140502,29.086333],[86.207049,29.098071],[86.240323,29.087103],[86.323507,29.095068],[86.406691,29.065402],[86.489875,29.017243],[86.506511,29.031015],[86.656243,29.048462],[86.708502,29.022791],[86.781875,28.956263],[86.768158,28.906367],[86.855884,28.866485],[86.905795,28.868567],[86.955705,28.762472],[87.038889,28.720664],[87.13871,28.69486],[87.164058,28.673521],[87.183749,28.57373],[87.166219,28.490571],[87.191526,28.390779],[87.23853,28.325682],[87.255167,28.250488],[87.289144,28.207829],[87.279663,28.141301],[87.299118,28.091406],[87.306989,27.974983],[87.286198,27.925087],[87.265528,27.7754],[87.132129,27.442763],[87.016696,27.259812],[86.849581,26.927175],[86.89834,26.844015],[86.955705,26.810836],[87.058014,26.79412],[87.095077,26.760856],[87.101539,26.727592],[87.038889,26.628083],[86.922431,26.504088],[86.789337,26.390228],[86.581018,26.2619],[86.207049,26.14079],[86.007407,26.111442]],[[85.294646,29.704697],[85.292025,29.714634],[85.294646,29.704697]],[[83.828664,29.272269],[83.828664,29.272269]]]}},{"type":"Feature","properties":{"value":6.0,"units":"mmi","color":"#ffff00","weight":2},"geometry":{"type":"MultiLineString","coordinates":[[[85.974134,26.408522],[85.824403,26.400645],[85.258751,26.471847],[84.876105,26.602876],[84.526732,26.692187],[84.377001,26.751944],[84.027628,26.942149],[83.939814,27.010334],[83.541471,27.459395],[83.498854,27.525922],[83.471565,27.609081],[83.495251,27.647679],[83.545161,27.682942],[83.595072,27.670846],[83.667759,27.692241],[83.678539,27.725505],[83.643436,27.792032],[83.630116,27.891823],[83.649513,27.925087],[83.636707,27.974983],[83.66615,28.04151],[83.683122,28.174565],[83.829257,28.473939],[83.890907,28.690153],[84.077539,29.063387],[84.133082,29.139214],[84.150869,29.255637],[84.144086,29.281368],[84.127234,29.2889],[84.12694,29.322164],[84.193996,29.354908],[84.243907,29.330079],[84.261587,29.355428],[84.360364,29.380086],[84.395841,29.421955],[84.360364,29.465245],[84.336879,29.471851],[84.377001,29.513084],[84.443548,29.520748],[84.59328,29.478936],[84.859468,29.44925],[84.942652,29.466267],[85.025836,29.501888],[85.075747,29.492953],[85.158931,29.414024],[85.185688,29.421955],[85.208841,29.460677],[85.221257,29.438587],[85.275388,29.429788],[85.358572,29.379831],[85.398282,29.338796],[85.43389,29.272269],[85.561903,29.155846],[85.674671,29.124428],[85.724582,29.128535],[85.749391,29.10595],[85.752445,29.072686],[85.769199,29.056054],[85.829545,29.022791],[85.849571,28.989527],[85.94086,28.919172],[86.073955,28.917572],[86.10288,28.906367],[86.150424,28.83984],[86.207049,28.827917],[86.256959,28.835639],[86.282681,28.873104],[86.323507,28.898989],[86.390054,28.901168],[86.423327,28.887398],[86.496725,28.806576],[86.523148,28.719008],[86.556422,28.727245],[86.573059,28.703655],[86.588971,28.773312],[86.606332,28.790669],[86.622969,28.764183],[86.689516,28.749419],[86.758081,28.673521],[86.717742,28.640257],[86.72279,28.622882],[86.756063,28.584888],[86.823039,28.557098],[86.812777,28.540466],[86.822611,28.529078],[86.855936,28.523834],[86.823039,28.507203],[86.87018,28.473939],[86.911669,28.407411],[86.972342,28.237806],[87.055526,28.109014],[87.03037,27.941719],[87.041078,27.858559],[87.009428,27.758768],[86.981838,27.725505],[86.878071,27.50929],[86.549261,26.943807],[86.549476,26.860647],[86.59148,26.79412],[86.59411,26.71096],[86.506511,26.604133],[86.35678,26.51141],[86.207049,26.453407],[85.974134,26.408522]],[[84.077539,29.288685],[84.077539,29.288685]]]}},{"type":"Feature","properties":{"value":6.5,"units":"mmi","color":"#ffe200","weight":4},"geometry":{"type":"MultiLineString","coordinates":[[[85.974134,26.674821],[85.857676,26.670335],[85.325299,26.74275],[84.942652,26.880281],[84.609916,26.966457],[84.193996,27.193404],[84.077539,27.283408],[83.987141,27.376235],[83.971129,27.426131],[83.98178,27.459395],[83.944359,27.525922],[83.917555,27.625713],[83.95619,27.708873],[83.957657,27.758768],[83.915759,27.808664],[83.895074,27.908455],[83.915023,27.991614],[83.905715,28.108038],[83.925541,28.224461],[84.071998,28.440675],[84.152545,28.623626],[84.240412,28.873104],[84.222457,28.939631],[84.248576,28.989527],[84.255657,29.039422],[84.310454,29.051377],[84.36282,29.10595],[84.377001,29.126996],[84.39134,29.239005],[84.410671,29.272269],[84.443548,29.294049],[84.510096,29.310054],[84.743011,29.287544],[84.842832,29.292352],[84.876105,29.305675],[84.942652,29.290414],[84.992563,29.249564],[85.10902,29.19497],[85.158931,29.177397],[85.225478,29.174908],[85.290374,29.139214],[85.340748,29.072686],[85.340863,29.056054],[85.292025,29.026006],[85.290548,29.006159],[85.341935,28.961149],[85.358572,28.955431],[85.391846,28.971331],[85.458393,29.045223],[85.47503,29.018459],[85.52494,29.011053],[85.574851,28.953281],[85.641398,28.927974],[85.707945,28.873088],[85.774492,28.86925],[85.89095,28.838037],[86.090591,28.661195],[86.30687,28.575866],[86.390054,28.527381],[86.506511,28.581414],[86.573059,28.581379],[86.656243,28.50903],[86.693889,28.457307],[86.710966,28.407411],[86.692682,28.340884],[86.703474,28.241093],[86.805832,27.974983],[86.809549,27.841928],[86.791309,27.7754],[86.37061,27.076862],[86.371721,27.026966],[86.326593,26.943807],[86.335092,26.893911],[86.279201,26.777488],[86.107228,26.700064],[85.974134,26.674821]],[[85.391846,29.04676],[85.377558,29.056054],[85.391846,29.064033],[85.406134,29.056054],[85.391846,29.04676]]]}},{"type":"Feature","properties":{"value":7.0,"units":"mmi","color":"#ffc600","weight":2},"geometry":{"type":"MultiLineString","coordinates":[[[86.007407,26.874715],[85.907587,26.871004],[85.741219,26.926655],[85.391846,27.011134],[85.042473,27.129395],[84.876105,27.167244],[84.826195,27.197074],[84.759648,27.200189],[84.659827,27.235716],[84.537462,27.359603],[84.510096,27.419087],[84.426912,27.468839],[84.310454,27.503524],[84.197974,27.609081],[84.199769,27.675609],[84.226991,27.725505],[84.231901,27.7754],[84.160723,27.825845],[84.097541,27.891823],[84.096959,27.925087],[84.071142,27.958351],[84.092589,28.008246],[84.075952,28.108038],[84.094176,28.128214],[84.134984,28.141301],[84.134913,28.174565],[84.188395,28.224461],[84.203744,28.290988],[84.256382,28.407411],[84.350374,28.557098],[84.472993,28.823208],[84.502745,28.856472],[84.522452,28.906367],[84.532815,28.972895],[84.525143,29.006159],[84.537258,29.022791],[84.576643,29.040549],[84.726374,29.048233],[84.776284,29.065096],[84.859468,29.057577],[84.969686,29.022791],[85.113975,28.939631],[85.175568,28.846321],[85.208841,28.829359],[85.258751,28.829366],[85.308662,28.750725],[85.408483,28.679746],[85.441756,28.669701],[85.558214,28.760404],[85.608124,28.755529],[85.674671,28.72324],[85.757855,28.638148],[85.890702,28.540466],[85.916874,28.490571],[85.990771,28.446291],[86.007407,28.410577],[86.073955,28.364743],[86.423327,28.230698],[86.462895,28.207829],[86.487411,28.174565],[86.555834,28.058142],[86.57204,27.958351],[86.474633,27.575818],[86.404763,27.442763],[86.272363,27.32634],[86.235329,27.276444],[86.122613,26.943807],[86.007407,26.874715]]]}},{"type":"Feature","properties":{"value":7.5,"units":"mmi","color":"#ffaa00","weight":4},"geometry":{"type":"MultiLineString","coordinates":[[[85.874313,27.12539],[85.757855,27.124466],[85.608124,27.186195],[85.557806,27.209916],[85.541577,27.259287],[85.473194,27.309708],[85.512268,27.32634],[85.516394,27.426131],[85.561555,27.559186],[85.556439,27.625713],[85.54828,27.658977],[85.493232,27.742136],[85.391846,27.812599],[85.258751,27.854106],[85.092384,27.844208],[84.975926,27.909453],[84.926016,27.916665],[84.826195,27.904136],[84.743011,27.87307],[84.626553,27.910129],[84.576643,27.948555],[84.493459,27.949533],[84.407485,27.974983],[84.395343,28.024878],[84.440467,28.157933],[84.468223,28.324252],[84.503149,28.440675],[84.592851,28.623626],[84.65844,28.723417],[84.759648,28.809913],[84.842832,28.831401],[84.876105,28.809597],[84.88313,28.773312],[84.992563,28.660949],[85.352295,28.490571],[85.541577,28.350451],[85.857676,28.27433],[86.074928,28.141301],[86.223686,28.111582],[86.292233,28.058142],[86.331924,27.941719],[86.317722,27.792032],[86.361479,27.625713],[86.348184,27.559186],[86.273596,27.490891],[86.173775,27.49239],[86.107228,27.455143],[86.066279,27.409499],[86.042341,27.309708],[85.999234,27.24318],[85.926992,27.160021],[85.874313,27.12539]],[[84.676464,27.685796],[84.676464,27.697521],[84.676464,27.685796]],[[84.743011,27.558979],[84.665089,27.575818],[84.65053,27.59245],[84.65599,27.625713],[84.676464,27.634707],[84.743011,27.613675],[84.76496,27.59245],[84.743011,27.558979]]]}},{"type":"Feature","properties":{"value":8.0,"units":"mmi","color":"#ff9100","weight":2},"geometry":{"type":"MultiLineString","coordinates":[[[84.942652,28.006673],[84.859468,27.995442],[84.776284,28.016137],[84.658387,28.124669],[84.628986,28.191197],[84.630672,28.274356],[84.709737,28.365904],[84.743011,28.379806],[84.809558,28.380692],[84.859468,28.365851],[84.926016,28.336902],[85.025836,28.24781],[85.055803,28.191197],[85.063326,28.124669],[85.0092,28.035797],[84.942652,28.006673]],[[85.724582,27.690727],[85.654129,27.742136],[85.591487,27.822521],[85.47503,27.841664],[85.37383,27.925087],[85.321015,27.991614],[85.325299,28.0322],[85.352492,28.074774],[85.391846,28.092753],[85.491667,28.073081],[85.52494,28.053355],[85.586673,27.991614],[85.642519,27.841928],[85.674671,27.829595],[85.724582,27.840331],[85.774492,27.812816],[85.802492,27.742136],[85.783453,27.708873],[85.724582,27.690727]]]}}]}