{
  "type": "FeatureCollection",
  "name": "Gorkha earthquake epicenter 2015-04-25",
  "source": "USGS event us20002926",
  "features": [
    {
      "type": "Feature",
      "properties": {
        "title": "M 7.8 - 67 km NNE of Bharatpur, Nepal",
        "mag": 7.8,
        "place": "67 km NNE of Bharatpur, Nepal",
        "time": 1429942285950,
        "url": "https://earthquake.usgs.gov/earthquakes/eventpage/us20002926"
      },
      "geometry": {
        "type": "Point",
        "coordinates": [
          84.7314,
          28.2305
        ]
      }
    }
  ]
}